NORAD_CAT_ID,OBJECT_NAME,OBJECT_TYPE,EPOCH,MEAN_MOTION,ECCENTRICITY,INCLINATION,RA_OF_ASC_NODE,ARG_OF_PERICENTER,MEAN_ANOMALY,BSTAR,MEAN_MOTION_DOT,MEAN_MOTION_DDOT,TLE_LINE0,TLE_LINE1,TLE_LINE2,SEMIMAJOR_AXIS,PERIOD,APOGEE,PERIGEE,DECAYED
53927.0,STARLINK-5008,PAYLOAD,2023-03-15 23:07:15,15.08854658,0.0001309,53.2174,161.0825,94.174,265.9402,3.2171e-06,-2.37e-06,0.0,0 STARLINK-5008,1 53927U 22119AT  23074.96337415 -.00000237  00000-0  32171-5 0  9997,2 53927  53.2174 161.0825 0001309  94.1740 265.9402 15.08854658 26962,6917.836,95.437,540.606,538.795,0.0
53927.0,STARLINK-5008,PAYLOAD,2023-03-16 10:14:59,15.08833238,0.0001347,53.2171,159.0023,93.9834,266.1312,-0.00018503,-3.231e-05,0.0,0 STARLINK-5008,1 53927U 22119AT  23075.42707339 -.00003231  00000-0 -18503-3 0  9994,2 53927  53.2171 159.0023 0001347  93.9834 266.1312 15.08833238 27032,6917.901,95.438,540.698,538.834,0.0
53927.0,STARLINK-5008,PAYLOAD,2023-03-17 11:41:10,15.08824394,0.0001063,53.2168,154.2443,91.557,268.5544,-0.0001833,-3.202e-05,0.0,0 STARLINK-5008,1 53927U 22119AT  23076.48692588 -.00003202  00000-0 -18330-3 0  9996,2 53927  53.2168 154.2443 0001063  91.5570 268.5544 15.08824394 27190,6917.928,95.439,540.528,539.058,0.0
53927.0,STARLINK-5008,PAYLOAD,2023-03-18 11:31:55,15.08844005,7.96e-05,53.2167,149.7837,101.551,258.5572,0.00026609,3.95e-05,0.0,0 STARLINK-5008,1 53927U 22119AT  23077.48049977  .00003950  00000-0  26609-3 0  9991,2 53927  53.2167 149.7837 0000796 101.5510 258.5572 15.08844005 27341,6917.868,95.437,540.284,539.182,0.0
53927.0,STARLINK-5008,PAYLOAD,2023-03-19 05:01:10,15.0883662,7.84e-05,53.2171,146.5118,89.042,271.0662,0.00015217,2.135e-05,0.0,0 STARLINK-5008,1 53927U 22119AT  23078.20915009  .00002135  00000-0  15217-3 0  9997,2 53927  53.2171 146.5118 0000784  89.0420 271.0662 15.08836620 27456,6917.891,95.438,540.298,539.213,0.0
53927.0,STARLINK-5008,PAYLOAD,2023-03-19 12:58:05,15.08842215,9.05e-05,53.2175,145.0257,89.0547,271.0549,0.00017672,2.526e-05,0.0,0 STARLINK-5008,1 53927U 22119AT  23078.54034567  .00002526  00000-0  17672-3 0  9996,2 53927  53.2175 145.0257 0000905  89.0547 271.0549 15.08842215 27926,6917.874,95.437,540.365,539.113,0.0
53927.0,STARLINK-5008,PAYLOAD,2023-03-19 14:33:28,15.08843074,9.02e-05,53.2172,144.7278,88.9111,271.1984,0.0001797,2.574e-05,0.0,0 STARLINK-5008,1 53927U 22119AT  23078.60658468  .00002574  00000-0  17970-3 0  9999,2 53927  53.2172 144.7278 0000902  88.9111 271.1984 15.08843074 27517,6917.871,95.437,540.36,539.112,0.0
53927.0,STARLINK-5008,PAYLOAD,2023-03-19 20:55:02,15.08832463,9.99e-05,53.2175,143.5367,84.7133,275.3973,6.2797e-05,7.12e-06,0.0,0 STARLINK-5008,1 53927U 22119AT  23078.87155560  .00000712  00000-0  62797-4 0  9993,2 53927  53.2175 143.5367 0000999  84.7133 275.3973 15.08832463 27974,6917.903,95.438,540.46,539.077,0.0
53927.0,STARLINK-5008,PAYLOAD,2023-03-20 03:16:35,15.08845397,0.0001303,53.2162,142.3485,88.7371,271.377,-0.00018779,-3.276e-05,0.0,0 STARLINK-5008,1 53927U 22119AT  23079.13651800 -.00003276  00000-0 -18779-3 0  9991,2 53927  53.2162 142.3485 0001303  88.7371 271.3770 15.08845397 27595,6917.864,95.437,540.63,538.827,0.0
53927.0,STARLINK-5008,PAYLOAD,2023-03-20 09:38:07,15.0884566,0.0001157,53.2166,141.1596,100.009,260.1033,-0.00017367,-3.051e-05,0.0,0 STARLINK-5008,1 53927U 22119AT  23079.40147508 -.00003051  00000-0 -17367-3 0  9999,2 53927  53.2166 141.1596 0001157 100.0090 260.1033 15.08845660 28055,6917.863,95.437,540.528,538.928,0.0
53927.0,STARLINK-5008,PAYLOAD,2023-03-21 11:04:17,15.08839966,0.0001325,53.2171,136.4016,99.8223,260.2919,-4.8962e-05,-1.067e-05,0.0,0 STARLINK-5008,1 53927U 22119AT  23080.46131405 -.00001067  00000-0 -48962-4 0  9997,2 53927  53.2171 136.4016 0001325  99.8223 260.2919 15.08839966 27791,6917.88,95.438,540.662,538.829,0.0
53927.0,STARLINK-5008,PAYLOAD,2023-03-21 20:36:36,15.08843219,0.0001311,53.2174,134.6183,84.083,276.0311,-6.0349e-05,-1.248e-05,0.0,0 STARLINK-5008,1 53927U 22119AT  23080.85875293 -.00001248  00000-0 -60349-4 0  9994,2 53927  53.2174 134.6183 0001311  84.0830 276.0311 15.08843219 28275,6917.871,95.437,540.642,538.829,0.0
53927.0,STARLINK-5008,PAYLOAD,2023-03-22 10:55:04,15.08842379,0.0001494,53.2188,131.9425,84.6424,275.4739,6.6172e-05,7.65e-06,0.0,0 STARLINK-5008,1 53927U 22119AT  23081.45491111  .00000765  00000-0  66172-4 0  9995,2 53927  53.2188 131.9425 0001494  84.6424 275.4739 15.08842379 28369,6917.873,95.437,540.772,538.705,0.0
53927.0,STARLINK-5008,PAYLOAD,2023-03-23 02:48:56,15.08837641,0.0001581,53.2191,128.969,84.177,275.9402,2.3804e-05,9.1e-07,0.0,0 STARLINK-5008,1 53927U 22119AT  23082.11731582  .00000091  00000-0  23804-4 0  9995,2 53927  53.2191 128.9690 0001581  84.1770 275.9402 15.08837641 28042,6917.888,95.438,540.846,538.659,0.0
53927.0,STARLINK-5008,PAYLOAD,2023-03-23 10:45:51,15.08839678,0.0001578,53.2188,127.482,83.443,276.6742,3.6161e-05,2.88e-06,0.0,0 STARLINK-5008,1 53927U 22119AT  23082.44851433  .00000288  00000-0  36161-4 0  9997,2 53927  53.2188 127.4820 0001578  83.4430 276.6742 15.08839678 28517,6917.881,95.438,540.838,538.655,0.0
53927.0,STARLINK-5008,PAYLOAD,2023-03-23 20:18:10,15.08840092,0.0001582,53.2186,125.6976,82.044,278.0732,3.1295e-05,2.1e-06,0.0,0 STARLINK-5008,1 53927U 22119AT  23082.84595395  .00000210  00000-0  31295-4 0  9991,2 53927  53.2186 125.6976 0001582  82.0440 278.0732 15.08840092 28571,6917.88,95.438,540.84,538.651,0.0
53927.0,STARLINK-5008,PAYLOAD,2023-03-24 09:01:14,15.08851056,0.00015,53.2182,123.3212,47.2518,312.86,0.00013099,1.798e-05,0.0,0 STARLINK-5008,1 53927U 22119AT  23083.37586166  .00001798  00000-0  13099-3 0  9999,2 53927  53.2182 123.3212 0001500  47.2518 312.8600 15.08851056 28230,6917.847,95.437,540.749,538.674,0.0
53927.0,STARLINK-5008,PAYLOAD,2023-03-24 20:08:56,15.08850807,0.0001925,53.2178,121.242,66.6851,293.4343,2.3836e-06,-2.5e-06,0.0,0 STARLINK-5008,1 53927U 22119AT  23083.83954322 -.00000250  00000-0  23836-5 0  9998,2 53927  53.2178 121.2420 0001925  66.6851 293.4343 15.08850807 28724,6917.847,95.437,541.044,538.381,0.0
53927.0,STARLINK-5008,PAYLOAD,2023-03-25 02:30:31,15.08818678,0.0001377,53.2185,120.0489,82.635,277.4798,-0.00021085,-3.64e-05,0.0,0 STARLINK-5008,1 53927U 22119AT  23084.10452952 -.00003640  00000-0 -21085-3 0  9990,2 53927  53.2185 120.0489 0001377  82.6350 277.4798 15.08818678 28341,6917.946,95.439,540.763,538.858,0.0
53927.0,STARLINK-5008,PAYLOAD,2023-03-25 08:52:03,15.08822033,0.0001605,53.2182,118.8607,78.9822,281.135,-0.00015745,-2.792e-05,0.0,0 STARLINK-5008,1 53927U 22119AT  23084.36948868 -.00002792  00000-0 -15745-3 0  9997,2 53927  53.2182 118.8607 0001605  78.9822 281.1350 15.08822033 28381,6917.935,95.439,540.911,538.69,0.0
53927.0,STARLINK-5008,PAYLOAD,2023-03-26 02:21:17,15.08832125,0.0001395,53.2192,115.5854,113.6612,246.4526,-3.119e-05,-7.84e-06,0.0,0 STARLINK-5008,1 53927U 22119AT  23085.09811865 -.00000784  00000-0 -31190-4 0  9996,2 53927  53.2192 115.5854 0001395 113.6612 246.4526 15.08832125 28494,6917.904,95.438,540.735,538.804,0.0
53927.0,STARLINK-5008,PAYLOAD,2023-03-26 08:42:49,15.08845978,0.000167,53.2186,114.3956,117.6873,242.4289,-0.00011829,-2.17e-05,0.0,0 STARLINK-5008,1 53927U 22119AT  23085.36307361 -.00002170  00000-0 -11829-3 0  9994,2 53927  53.2186 114.3956 0001670 117.6873 242.4289 15.08845978 28533,6917.862,95.437,540.882,538.572,0.0
53927.0,STARLINK-5008,PAYLOAD,2023-03-26 18:15:08,15.08847492,0.0001717,53.2188,112.6133,128.8537,231.2608,-0.00016842,-2.968e-05,0.0,0 STARLINK-5008,1 53927U 22119AT  23085.76051306 -.00002968  00000-0 -16842-3 0  9998,2 53927  53.2188 112.6133 0001717 128.8537 231.2608 15.08847492 29014,6917.857,95.437,540.91,538.535,0.0
53927.0,STARLINK-5008,PAYLOAD,2023-03-27 00:36:41,15.08781264,0.0001419,53.2187,111.4249,111.4412,248.6732,0.00066841,0.00010349,0.0,0 STARLINK-5008,1 53927U 22119AT  23086.02548516  .00010349  00000-0  66841-3 0  9996,2 53927  53.2187 111.4249 0001419 111.4412 248.6732 15.08781264 28638,6918.06,95.441,540.907,538.943,0.0
53927.0,STARLINK-5008,PAYLOAD,2023-03-27 08:33:37,15.08828027,0.00015,53.2187,109.9375,110.7797,249.3356,7.9435e-05,9.76e-06,0.0,0 STARLINK-5008,1 53927U 22119AT  23086.35668227  .00000976  00000-0  79435-4 0  9993,2 53927  53.2187 109.9375 0001500 110.7797 249.3356 15.08828027 28683,6917.917,95.438,540.82,538.744,0.0
53927.0,STARLINK-5008,PAYLOAD,2023-03-27 18:05:54,15.08846539,0.0001177,53.2189,108.1575,105.4999,254.6123,0.00015144,2.124e-05,0.0,0 STARLINK-5008,1 53927U 22119AT  23086.75410810  .00002124  00000-0  15144-3 0  9993,2 53927  53.2189 108.1575 0001177 105.4999 254.6123 15.08846539 28749,6917.86,95.437,540.54,538.911,0.0
53927.0,STARLINK-5008,PAYLOAD,2023-03-28 05:13:38,15.08828554,0.0001442,53.2187,106.0718,106.2392,253.8758,-7.0262e-05,-1.406e-05,0.0,0 STARLINK-5008,1 53927U 22119AT  23087.21780912 -.00001406  00000-0 -70262-4 0  9995,2 53927  53.2187 106.0718 0001442 106.2392 253.8758 15.08828554 28814,6917.915,95.438,540.778,538.783,0.0
53927.0,STARLINK-5008,PAYLOAD,2023-03-28 17:56:43,15.08832983,0.0001528,53.2196,103.6932,106.0824,254.0337,-1.1941e-05,-4.78e-06,0.0,0 STARLINK-5008,1 53927U 22119AT  23087.74772650 -.00000478  00000-0 -11941-4 0  9990,2 53927  53.2196 103.6932 0001528 106.0824 254.0337 15.08832983 28893,6917.902,95.438,540.824,538.71,0.0
53927.0,STARLINK-5008,PAYLOAD,2023-03-29 08:15:11,15.08840785,0.0001387,53.2189,101.0162,97.7549,262.36,3.315e-05,2.4e-06,0.0,0 STARLINK-5008,1 53927U 22119AT  23088.34388106  .00000240  00000-0  33150-4 0  9997,2 53927  53.2189 101.0162 0001387  97.7549 262.3600 15.08840785 28989,6917.878,95.438,540.702,538.783,0.0
53927.0,STARLINK-5008,PAYLOAD,2023-03-29 17:47:30,15.08841501,0.0001583,53.2191,99.2325,124.8937,235.2204,1.5624e-05,-3.9e-07,0.0,0 STARLINK-5008,1 53927U 22119AT  23088.74131971 -.00000039  00000-0  15624-4 0  9990,2 53927  53.2191  99.2325 0001583 124.8937 235.2204 15.08841501 29462,6917.876,95.437,540.836,538.646,0.0
